CUTE-1 (CO-55)          
1 27844U 03031E   26165.01650923  .00000269  00000+0  13536-3 0  9995
2 27844  98.6736 173.6152 0009315 187.2201 172.8845 14.24333986191223
CUBESAT XI-IV (CO-57)   
1 27848U 03031J   26165.28450993  .00000215  00000+0  11362-3 0  9999
2 27848  98.6766 173.5948 0008828 205.9293 154.1445 14.23619426190963
CUBESAT XI-V            
1 28895U 05043F   26164.39375696  .00001317  00000+0  21486-3 0  9996
2 28895  98.2979 319.9359 0013416 213.2696 146.7669 14.72622172101196
CUTE-1.7+APD II (CO-65) 
1 32785U 08021C   26165.19938055  .00004778  00000+0  30257-3 0  9991
2 32785  97.8270 146.5558 0010151  48.5281 311.6817 15.09428490984741
CANX-2                  
1 32790U 08021H   26164.89878970  .00004690  00000+0  32935-3 0  9990
2 32790  97.8622 144.6119 0011508  60.3061 299.9309 15.05592573984312
SEEDS II (CO-66)        
1 32791U 08021J   26164.93655222  .00018728  00000+0  59582-3 0  9993
2 32791  97.7509 162.6789 0001549  14.7739 345.3547 15.32650243986791
SWISSCUBE               
1 35932U 09051B   26165.22670746  .00000895  00000+0  18634-3 0  9997
2 35932  98.4040  73.0633 0005785 213.5244 146.5592 14.62476649888721
BEESAT-1                
1 35933U 09051C   26165.30305620  .00000739  00000+0  15814-3 0  9997
2 35933  98.3967  72.7826 0004080 228.1566 131.9287 14.61716350888763
ITUPSAT1                
1 35935U 09051E   26165.22290827  .00000683  00000+0  15098-3 0  9994
2 35935  98.4052  71.8963 0006164 244.9503 115.1058 14.60436749888305
TISAT 1                 
1 36799U 10035E   26165.11191104  .00020816  00000+0  68379-3 0  9993
2 36799  98.0711 111.3882 0001006 172.7308 187.3947 15.31604484867232
AEROCUBE 4.5A           
1 38767U 12048K   26164.96429410  .00420826  76435-4  11387-2 0  9993
2 38767  64.6249  38.6678 0019801 221.1058 138.8613 15.93639179372140
STRAND-1                
1 39090U 13009E   26164.99264803  .00000257  00000+0  10072-3 0  9990
2 39090  98.3921 345.3057 0007583 236.1034 123.9432 14.37161671696602
BRITE-AUSTRIA           
1 39091U 13009F   26165.28275201  .00000153  00000+0  66530-4 0  9994
2 39091  98.3993 344.7904 0009050 246.2651 113.7587 14.36541037696632
NEE-01 PEGASO           
1 39151U 13018B   26165.31799982  .00002150  00000+0  20906-3 0  9997
2 39151  98.1215 309.3736 0012835 168.5620 191.5892 14.93647786710272
POPACS 2                
1 39269U 13055E   26165.22389900  .00013658  00000+0  23173-3 0  9997
2 39269  80.9900 147.5841 0416875 203.2966 154.8876 14.91145737662775
POPACS 3                
1 39270U 13055F   26164.47752371  .00009975  00000+0  23442-3 0  9997
2 39270  81.0022 233.2084 0552493  81.2860 285.0480 14.56060284638012
ZACUBE-1 (TSHEPISOSAT)  
1 39417U 13066B   26165.14115578  .00003529  00000+0  27550-3 0  9992
2 39417  97.8083 127.4617 0040471 258.3287 101.3393 15.01173415680271
WNISAT-1                
1 39423U 13066H   26164.98566679  .00000756  00000+0  14653-3 0  9991
2 39423  97.7197 314.3692 0161833 241.7496 116.7288 14.58057519666260
TRITON-1                
1 39427U 13066M   26165.25670023  .00002484  00000+0  30160-3 0  9996
2 39427  97.8257  75.1306 0088373 243.5840 115.6284 14.81699787673656
GOMX-1                  
1 39430U 13066Q   26165.25794256  .00001978  00000+0  30067-3 0  9998
2 39430  97.6485   5.9059 0130191  86.8493 274.7601 14.69450522669489
CUBEBUG-2 (LO-74)       
1 39440U 13066AA  26165.11577810  .00004533  00000+0  41941-3 0  9992
2 39440  97.8903 114.0809 0058613  38.9303 321.6115 14.93738647676538
NEE-02 KRYSAOR          
1 39441U 13066AB  26165.11302730  .00002524  00000+0  27928-3 0  9997
2 39441  97.8892 104.3496 0067709  80.0536 280.8313 14.86606396675747
FUNCUBE-1 (AO-73)       
1 39444U 13066AE  26164.87461990  .00007372  00000+0  45803-3 0  9994
2 39444  97.8267 136.2511 0035377 212.6416 147.2626 15.09452478679163
UWE-3                   
1 39446U 13066AG  26164.80677422  .00004526  00000+0  38955-3 0  9996
2 39446  97.8688 120.8577 0048115 332.4032  27.4636 14.96999955677071
BRITE-CA1 (TORONTO)     
1 40020U 14033L   26165.32000207  .00000628  00000+0  10220-3 0  9994
2 40020  97.9735 294.3008 0077274 286.3637  72.9085 14.72673070641791
DUCHIFAT-1              
1 40021U 14033M   26165.14309872  .00112865  00000+0  11822-2 0  9990
2 40021  98.0474 223.8762 0003417 119.3968 240.7631 15.64039026655277
NANOSATC-BR1            
1 40024U 14033Q   26165.06907580  .00017308  00000+0  57336-3 0  9991
2 40024  98.0722 197.1804 0004118 171.0394 189.0919 15.31368944653509
QB50P1                  
1 40025U 14033R   26164.98653313  .00008764  00000+0  43164-3 0  9994
2 40025  98.0960 175.9078 0007561 228.0389 132.0200 15.18216590652541
QB50P2                  
1 40032U 14033Y   26165.26030272  .00006774  00000+0  36519-3 0  9992
2 40032  98.0744 161.9582 0007710 172.5515 187.5832 15.15125492652222
PERSEUS-M2              
1 40037U 14033AD  26165.31989728  .00001680  00000+0  15710-3 0  9993
2 40037  97.9955 115.8021 0011068 314.7893  45.2426 14.95502399650358
